{
  "type": "FeatureCollection",
  "features": [
    {
      "type": "Feature",
      "properties": {
        "norad_id": 31365,
        "name": "FENGYUN 1C DEB",
        "group": "fengyun-1c-debris",
        "lat": -28.297143717117407,
        "lon": 87.8882103678251,
        "alt_km": 782.4980403403988,
        "timestamp": "2025-12-23T22:42:33.266593+00:00",
        "meta_object_name": "FENGYUN 1C DEB",
        "meta_object_id": "1999-025BRV",
        "meta_epoch": "2025-12-23T04:31:26.565024",
        "meta_mean_motion": 14.41970877,
        "meta_eccentricity": 0.00428206,
        "meta_inclination": 98.6739,
        "meta_ra_of_asc_node": 82.4043,
        "meta_arg_of_pericenter": 189.4582,
        "meta_mean_anomaly": 170.5805,
        "meta_ephemeris_type": 0,
        "meta_classification_type": "U",
        "meta_norad_cat_id": 31365,
        "meta_element_set_no": 999,
        "meta_rev_at_epoch": 96779,
        "meta_bstar": 0.0021171214,
        "meta_mean_motion_dot": 6.978e-05,
        "meta_mean_motion_ddot": 0,
        "tle_line1": "1 31365U 99025BRV 25357.18850191  .00006978  00000+0  21171-2 0  9991",
        "tle_line2": "2 31365  98.6739  82.4043 0042820 189.4582 170.5805 14.41970877967798"
      },
      "geometry": {
        "type": "Point",
        "coordinates": [
          87.8882103678251,
          -28.297143717117407
        ]
      }
    },
    {
      "type": "Feature",
      "properties": {
        "norad_id": 31367,
        "name": "FENGYUN 1C DEB",
        "group": "fengyun-1c-debris",
        "lat": 76.86242555558832,
        "lon": 113.85560071583446,
        "alt_km": 757.8799838662035,
        "timestamp": "2025-12-23T22:42:33.266603+00:00",
        "meta_object_name": "FENGYUN 1C DEB",
        "meta_object_id": "1999-025BRX",
        "meta_epoch": "2025-12-21T04:35:30.442848",
        "meta_mean_motion": 14.47523379,
        "meta_eccentricity": 0.00989793,
        "meta_inclination": 98.7459,
        "meta_ra_of_asc_node": 249.7415,
        "meta_arg_of_pericenter": 351.0863,
        "meta_mean_anomaly": 159.9822,
        "meta_ephemeris_type": 0,
        "meta_classification_type": "U",
        "meta_norad_cat_id": 31367,
        "meta_element_set_no": 999,
        "meta_rev_at_epoch": 98588,
        "meta_bstar": 0.00041696927,
        "meta_mean_motion_dot": 1.578e-05,
        "meta_mean_motion_ddot": 0,
        "tle_line1": "1 31367U 99025BRX 25355.19132457  .00001578  00000+0  41697-3 0  9997",
        "tle_line2": "2 31367  98.7459 249.7415 0098979 351.0863 159.9822 14.47523379985883"
      },
      "geometry": {
        "type": "Point",
        "coordinates": [
          113.85560071583446,
          76.86242555558832
        ]
      }
    },
    {
      "type": "Feature",
      "properties": {
        "norad_id": 31369,
        "name": "FENGYUN 1C DEB",
        "group": "fengyun-1c-debris",
        "lat": 79.1562300934494,
        "lon": -148.71840221573137,
        "alt_km": 858.4275438589111,
        "timestamp": "2025-12-23T22:42:33.266614+00:00",
        "meta_object_name": "FENGYUN 1C DEB",
        "meta_object_id": "1999-025BRZ",
        "meta_epoch": "2025-12-22T18:05:34.153728",
        "meta_mean_motion": 14.19422636,
        "meta_eccentricity": 0.00542592,
        "meta_inclination": 98.6198,
        "meta_ra_of_asc_node": 337.76,
        "meta_arg_of_pericenter": 270.0056,
        "meta_mean_anomaly": 217.3066,
        "meta_ephemeris_type": 0,
        "meta_classification_type": "U",
        "meta_norad_cat_id": 31369,
        "meta_element_set_no": 999,
        "meta_rev_at_epoch": 64469,
        "meta_bstar": 0.00024964358,
        "meta_mean_motion_dot": 4.9e-06,
        "meta_mean_motion_ddot": 0,
        "tle_line1": "1 31369U 99025BRZ 25356.75386752  .00000490  00000+0  24964-3 0  9991",
        "tle_line2": "2 31369  98.6198 337.7600 0054259 270.0056 217.3066 14.19422636644698"
      },
      "geometry": {
        "type": "Point",
        "coordinates": [
          -148.71840221573137,
          79.1562300934494
        ]
      }
    },
    {
      "type": "Feature",
      "properties": {
        "norad_id": 31370,
        "name": "FENGYUN 1C DEB",
        "group": "fengyun-1c-debris",
        "lat": -19.707861286528633,
        "lon": 174.48411891102097,
        "alt_km": 855.4909757650394,
        "timestamp": "2025-12-23T22:42:33.266623+00:00",
        "meta_object_name": "FENGYUN 1C DEB",
        "meta_object_id": "1999-025BSA",
        "meta_epoch": "2025-12-18T10:35:51.641952",
        "meta_mean_motion": 14.09714607,
        "meta_eccentricity": 0.00331839,
        "meta_inclination": 98.7533,
        "meta_ra_of_asc_node": 352.2955,
        "meta_arg_of_pericenter": 281.205,
        "meta_mean_anomaly": 78.5392,
        "meta_ephemeris_type": 0,
        "meta_classification_type": "U",
        "meta_norad_cat_id": 31370,
        "meta_element_set_no": 999,
        "meta_rev_at_epoch": 96374,
        "meta_bstar": 0.00035450044,
        "meta_mean_motion_dot": 5.82e-06,
        "meta_mean_motion_ddot": 0,
        "tle_line1": "1 31370U 99025BSA 25352.44156993  .00000582  00000+0  35450-3 0  9991",
        "tle_line2": "2 31370  98.7533 352.2955 0033183 281.2050  78.5392 14.09714607963740"
      },
      "geometry": {
        "type": "Point",
        "coordinates": [
          174.48411891102097,
          -19.707861286528633
        ]
      }
    },
    {
      "type": "Feature",
      "properties": {
        "norad_id": 31371,
        "name": "FENGYUN 1C DEB",
        "group": "fengyun-1c-debris",
        "lat": -71.71102417979087,
        "lon": -177.27458164777374,
        "alt_km": 840.8006778450308,
        "timestamp": "2025-12-23T22:42:33.266634+00:00",
        "meta_object_name": "FENGYUN 1C DEB",
        "meta_object_id": "1999-025BSB",
        "meta_epoch": "2025-12-22T19:51:31.137408",
        "meta_mean_motion": 14.04529651,
        "meta_eccentricity": 0.00783572,
        "meta_inclination": 98.7647,
        "meta_ra_of_asc_node": 29.4711,
        "meta_arg_of_pericenter": 218.3757,
        "meta_mean_anomaly": 141.1821,
        "meta_ephemeris_type": 0,
        "meta_classification_type": "U",
        "meta_norad_cat_id": 31371,
        "meta_element_set_no": 999,
        "meta_rev_at_epoch": 95888,
        "meta_bstar": 0.00067430107,
        "meta_mean_motion_dot": 1.063e-05,
        "meta_mean_motion_ddot": 0,
        "tle_line1": "1 31371U 99025BSB 25356.82744372  .00001063  00000+0  67430-3 0  9990",
        "tle_line2": "2 31371  98.7647  29.4711 0078357 218.3757 141.1821 14.04529651958888"
      },
      "geometry": {
        "type": "Point",
        "coordinates": [
          -177.27458164777374,
          -71.71102417979087
        ]
      }
    },
    {
      "type": "Feature",
      "properties": {
        "norad_id": 31372,
        "name": "FENGYUN 1C DEB",
        "group": "fengyun-1c-debris",
        "lat": 15.957084290877033,
        "lon": 172.48164172802277,
        "alt_km": 815.870451317629,
        "timestamp": "2025-12-23T22:42:33.266644+00:00",
        "meta_object_name": "FENGYUN 1C DEB",
        "meta_object_id": "1999-025BSC",
        "meta_epoch": "2025-12-22T22:22:54.506784",
        "meta_mean_motion": 14.26607096,
        "meta_eccentricity": 0.0033917,
        "meta_inclination": 99.3749,
        "meta_ra_of_asc_node": 348.6894,
        "meta_arg_of_pericenter": 46.4084,
        "meta_mean_anomaly": 313.99,
        "meta_ephemeris_type": 0,
        "meta_classification_type": "U",
        "meta_norad_cat_id": 31372,
        "meta_element_set_no": 999,
        "meta_rev_at_epoch": 95996,
        "meta_bstar": 0.0016229,
        "meta_mean_motion_dot": 3.895e-05,
        "meta_mean_motion_ddot": 0,
        "tle_line1": "1 31372U 99025BSC 25356.93257531  .00003895  00000+0  16229-2 0  9993",
        "tle_line2": "2 31372  99.3749 348.6894 0033917  46.4084 313.9900 14.26607096959964"
      },
      "geometry": {
        "type": "Point",
        "coordinates": [
          172.48164172802277,
          15.957084290877033
        ]
      }
    },
    {
      "type": "Feature",
      "properties": {
        "norad_id": 31376,
        "name": "FENGYUN 1C DEB",
        "group": "fengyun-1c-debris",
        "lat": 44.106473056571566,
        "lon": -93.74860577807321,
        "alt_km": 717.0422699581814,
        "timestamp": "2025-12-23T22:42:33.266654+00:00",
        "meta_object_name": "FENGYUN 1C DEB",
        "meta_object_id": "1999-025BSG",
        "meta_epoch": "2025-12-22T12:00:27.959040",
        "meta_mean_motion": 14.61892861,
        "meta_eccentricity": 0.00484619,
        "meta_inclination": 98.8344,
        "meta_ra_of_asc_node": 273.3774,
        "meta_arg_of_pericenter": 238.0862,
        "meta_mean_anomaly": 121.5619,
        "meta_ephemeris_type": 0,
        "meta_classification_type": "U",
        "meta_norad_cat_id": 31376,
        "meta_element_set_no": 999,
        "meta_rev_at_epoch": 98285,
        "meta_bstar": 0.0023150769,
        "meta_mean_motion_dot": 0.00011737,
        "meta_mean_motion_ddot": 0,
        "tle_line1": "1 31376U 99025BSG 25356.50032360  .00011737  00000+0  23151-2 0  9997",
        "tle_line2": "2 31376  98.8344 273.3774 0048461 238.0862 121.5619 14.61892861982856"
      },
      "geometry": {
        "type": "Point",
        "coordinates": [
          -93.74860577807321,
          44.106473056571566
        ]
      }
    }
  ]
}